#aV2011  1  7  0  0   .00000000      96 DD+AD WGS84 FIT  NGA
## 1617 432000.00000000   900.00000000 55568  .0000000000000
+   32     1  2  3  4  5  6  7  8  9 10 11 12 13 14 15 16 17
+         18 19 20 21 22 23 24 25 26 27 28 29 30 31 32  0  0
+          0  0  0  0  0  0  0  0  0  0  0  0  0  0  0  0  0
+          0  0  0  0  0  0  0  0  0  0  0  0  0  0  0  0  0
+          0  0  0  0  0  0  0  0  0  0  0  0  0  0  0  0  0
++         0  0  0  0  0  0  0  0  0  0  0  0  0  0  0  0  0
++         0  0  0  0  0  0  0  0  0  0  0  0  0  0  0  0  0
++         0  0  0  0  0  0  0  0  0  0  0  0  0  0  0  0  0
++         0  0  0  0  0  0  0  0  0  0  0  0  0  0  0  0  0
++         0  0  0  0  0  0  0  0  0  0  0  0  0  0  0  0  0
%c cc cc ccc ccc cccc cccc cccc cccc ccccc ccccc ccccc ccccc
%c cc cc ccc ccc cccc cccc cccc cccc ccccc ccccc ccccc ccccc
%f  0.0000000  0.000000000  0.00000000000  0.000000000000000
%f  0.0000000  0.000000000  0.00000000000  0.000000000000000
%i    0    0    0    0      0      0      0      0         0
%i    0    0    0    0      0      0      0      0         0
/*      NGA, ST. LOUIS,MO.                                  
/*   EPHEMERIS COMPUTED FROM  3 DAYS OF DATA                
/* CCCCCCCCCCCCCCCCCCCCCCCCCCCCCCCCCCCCCCCCCCCCCCCCCCCCCCCCC
/* CCCCCCCCCCCCCCCCCCCCCCCCCCCCCCCCCCCCCCCCCCCCCCCCCCCCCCCCC
*  2011  1  7 18 45   .00000000                                                 
P  1 -16967.575620   2286.751294  20226.640528   -198.113559                    
V  1 -17035.702427 -19505.251478 -11891.296589      -.032451                    
P  2  19837.174263 -13324.750099  11078.135027    313.348927                    
V  2  14658.153177   -199.339569 -26986.576923       .022170                    
P  3 -10223.836725  22713.461149   8338.123655    659.381012                    
V  3  -1914.943857 -11776.209161  28688.592104       .051014                    
P  4  25868.729680  -6725.209091    973.924489      2.611841                    
V  4   2161.759065   2822.536376 -30978.644739       .099507                    
P  5   7143.116167 -14267.083461  21199.695965    -95.234266                    
V  5  18982.676709  19208.700350   6627.091299      -.059643                    
P  6 -13907.583596  19098.847657  12101.751174    375.368677                    
V  6    667.174749 -15541.874902  25827.039776      -.056311                    
P  7  19382.329673   7301.568780  16746.965772      1.462279                    
V  7 -20305.928759   6073.414701  20663.992781       .005552                    
P  8  25791.677007    973.702358   7405.342999      7.140294                    
V  8  -8931.729980   2552.433317  30315.371852       .000720                    
P  9    306.305381 -15375.528256 -22198.095393     53.860113                    
V  9  26052.279843  -6410.787214   4934.079185       .025039                    
P 10  18308.092349    -61.858061  19161.970252    -62.572375                    
V 10  15505.091599  19251.475701 -14230.084826      -.011269                    
P 11   3402.627412  16946.759801 -20428.611679   -117.443712                    
V 11 -23292.259148  10810.865158   5528.261651      -.029966                    
P 12  -7690.326971 -21787.755004 -13200.639398    -37.834061                    
V 12  12617.883748  11149.563564 -25529.655400       .033512                    
P 13   8312.656142  14987.128780  20142.215636    286.646504                    
V 13 -10124.377393  23759.479920 -13454.475083      -.012026                    
P 14 -15986.258768   3789.325910 -20678.548397    121.956530                    
V 14   8311.049433 -25270.212926 -11099.542065       .029957                    
P 15   2053.585262 -25456.284661  -6986.067379   -163.628561                    
V 15   5395.035217  -7760.242180  29952.457844       .039357                    
P 16 -10756.377710  10357.003785  21992.203355   -140.816819                    
V 16 -18491.308871 -20772.156692   1017.003912      -.030645                    
P 17  16009.958077  -1711.853198 -20966.374414    181.238548                    
V 17  -7725.193566  25820.688723  -8184.169893       .007004                    
P 18 -20452.983294 -16052.540540  -6016.659577    114.662375                    
V 18  -2931.078209  -8083.902339  29676.085902       .021074                    
P 19  -7266.032751  25113.989036  -3517.545231    -99.339286                    
V 19  -4579.394300   3045.694583  31499.388772      -.035520                    
P 20  11728.457999  21847.919513  -9756.939712     48.843799                    
V 20 -10879.464967  -6378.133015 -27703.140641      -.000853                    
P 21 -20740.578544  -7334.402616  15674.524642   -115.017333                    
V 21  18181.595010  -6147.188441  21079.745699      -.027254                    
P 22 -20665.805277  -5839.718348 -15522.870402    155.501888                    
V 22 -11476.308603 -16640.963815  21217.184640      -.004894                    
P 23   1837.052012  23140.841044  12590.753458    333.564936                    
V 23  -7130.521119  14644.492012 -26196.777940      -.022465                    
P 24   2383.971652  15277.470678 -21531.832949    354.563198                    
V 24 -27139.087330   4656.913790    557.530901       .031722                    
P 25 -18125.994005 -19405.909563   -576.154994    -62.345487                    
V 25   2491.231873  -1406.405112 -31780.137576      -.020820                    
P 26  11957.675616 -22910.839955   4475.072489    -90.662678                    
V 26   -164.942971   6862.560611  31974.625275      -.090262                    
P 27   7445.777150 -15637.494487 -19380.144912    224.667881                    
V 27  25480.809611  -5928.937727  14343.004448       .037809                    
P 28  20578.545189  10147.927157 -13110.335172     13.372186                    
V 28   9917.829453  14367.948266  25432.935063       .019560                    
P 29  -7916.725769 -17199.228071  18719.067949    176.369296                    
V 29   8975.067825 -21864.844055 -16325.420352       .028009                    
P 30 -17221.448258   2444.330603  19676.583654    311.486400                    
V 30 -17611.946700 -19007.992654 -12771.937908       .031685                    
P 31 -25136.229972   8202.414442   3678.456389     27.154866                    
V 31  -4712.190536  -1030.775661 -31565.927683       .041711                    
P 32   3100.508076  21444.899445 -15322.065236   -170.132989                    
V 32 -13770.209332 -14426.535196 -22147.010550      -.081075                    
EOF
